NORAD_CAT_ID,OBJECT_NAME,OBJECT_TYPE,EPOCH,MEAN_MOTION,ECCENTRICITY,INCLINATION,RA_OF_ASC_NODE,ARG_OF_PERICENTER,MEAN_ANOMALY,BSTAR,MEAN_MOTION_DOT,MEAN_MOTION_DDOT,TLE_LINE0,TLE_LINE1,TLE_LINE2,SEMIMAJOR_AXIS,PERIOD,APOGEE,PERIGEE,DECAYED
54770.0,STARLINK-5448,PAYLOAD,2023-10-15 04:17:58,15.088506,0.0001401,53.2183,4.1118,84.5617,275.5535,0.00011584,1.557e-05,0.0,0 STARLINK-5448,1 54770U 22175N   23288.17914739  .00001557  00000-0  11584-3 0  9994,2 54770  53.2183   4.1118 0001401  84.5617 275.5535 15.08850600 45643,6917.848,95.437,540.682,538.744,0.0
54770.0,STARLINK-5448,PAYLOAD,2023-10-15 12:14:55,15.08824102,0.0001481,53.2177,2.6272,75.9837,284.1319,-0.00025637,-4.364e-05,0.0,0 STARLINK-5448,1 54770U 22175N   23288.51036345 -.00004364  00000-0 -25637-3 0  9995,2 54770  53.2177   2.6272 0001481  75.9837 284.1319 15.08824102 45695,6917.929,95.439,540.819,538.769,0.0
54770.0,STARLINK-5448,PAYLOAD,2023-10-15 21:47:14,15.08830632,0.0001555,53.2186,0.8436,79.3206,280.7961,-3.1391e-05,-7.87e-06,0.0,0 STARLINK-5448,1 54770U 22175N   23288.90780522 -.00000787  00000-0 -31391-4 0  9991,2 54770  53.2186   0.8436 0001555  79.3206 280.7961 15.08830632 47914,6917.909,95.438,540.85,538.698,0.0
54770.0,STARLINK-5448,PAYLOAD,2023-10-16 08:54:56,15.08847337,0.0001431,53.2175,358.7613,74.8829,285.2322,0.0003303,4.974e-05,0.0,0 STARLINK-5448,1 54770U 22175N   23289.37148157  .00004974  00000-0  33030-3 0  9996,2 54770  53.2175 358.7613 0001431  74.8829 285.2322 15.08847337 45827,6917.858,95.437,540.713,538.733,0.0
54770.0,STARLINK-5448,PAYLOAD,2023-10-16 13:41:05,15.08866234,0.0001551,53.2174,357.8694,68.482,291.6338,0.0016006,0.00025296,0.0,0 STARLINK-5448,1 54770U 22175N   23289.57020413  .00025296  00000-0  16006-2 0  9995,2 54770  53.2174 357.8694 0001551  68.4820 291.6338 15.08866234 48017,6917.8,95.436,540.738,538.592,0.0
54770.0,STARLINK-5448,PAYLOAD,2023-10-17 11:56:29,15.08857516,0.0001447,53.2164,353.7063,81.4565,278.6591,0.0013854,0.0002184,0.0,0 STARLINK-5448,1 54770U 22175N   23290.49756297  .00021840  00000-0  13854-2 0  9993,2 54770  53.2164 353.7063 0001447  81.4565 278.6591 15.08857516 45999,6917.827,95.436,540.693,538.691,0.0
54770.0,STARLINK-5448,PAYLOAD,2023-10-17 13:31:52,15.08858935,0.0001499,53.2163,353.409,76.7795,283.3364,0.0014124,0.00022273,0.0,0 STARLINK-5448,1 54770U 22175N   23290.56380270  .00022273  00000-0  14124-2 0  9997,2 54770  53.2163 353.4090 0001499  76.7795 283.3364 15.08858935 48163,6917.823,95.436,540.724,538.651,0.0
54770.0,STARLINK-5448,PAYLOAD,2023-10-17 21:28:48,15.08845405,0.0001845,53.2169,351.9202,86.4405,273.6798,0.0010898,0.00017101,0.0,0 STARLINK-5448,1 54770U 22175N   23290.89500522  .00017101  00000-0  10898-2 0  9995,2 54770  53.2169 351.9202 0001845  86.4405 273.6798 15.08845405 48215,6917.864,95.437,541.005,538.453,0.0
54770.0,STARLINK-5448,PAYLOAD,2023-10-18 11:47:16,15.0884101,0.0001636,53.217,349.247,82.213,277.9048,0.00067288,0.00010437,0.0,0 STARLINK-5448,1 54770U 22175N   23291.49116504  .00010437  00000-0  67288-3 0  9996,2 54770  53.2170 349.2470 0001636  82.2130 277.9048 15.08841010 46144,6917.877,95.437,540.874,538.611,0.0
54770.0,STARLINK-5448,PAYLOAD,2023-10-18 21:19:35,15.08849015,0.0001615,53.2158,347.4638,82.8759,277.2417,0.00039868,6.064e-05,0.0,0 STARLINK-5448,1 54770U 22175N   23291.88860361  .00006064  00000-0  39868-3 0  9990,2 54770  53.2158 347.4638 0001615  82.8759 277.2417 15.08849015 48368,6917.853,95.437,540.835,538.601,0.0
54770.0,STARLINK-5448,PAYLOAD,2023-10-19 13:13:26,15.08863608,0.0001625,53.2167,344.4856,95.7389,264.3789,0.0006346,9.833e-05,0.0,0 STARLINK-5448,1 54770U 22175N   23292.55099656  .00009833  00000-0  63460-3 0  9998,2 54770  53.2167 344.4856 0001625  95.7389 264.3789 15.08863608 48464,6917.808,95.436,540.797,538.549,0.0
54770.0,STARLINK-5448,PAYLOAD,2023-10-19 21:10:22,15.0883625,0.0001959,53.2168,343.0023,81.1636,278.9578,-7.4767e-06,-4.07e-06,0.0,0 STARLINK-5448,1 54770U 22175N   23292.88220684 -.00000407  00000-0 -74767-5 0  9995,2 54770  53.2168 343.0023 0001959  81.1636 278.9578 15.08836250 48516,6917.892,95.438,541.112,538.402,0.0
54770.0,STARLINK-5448,PAYLOAD,2023-10-20 03:31:55,15.08837051,0.0001583,53.2161,341.8126,83.5662,276.551,3.5321e-05,2.74e-06,0.0,0 STARLINK-5448,1 54770U 22175N   23293.14716570  .00000274  00000-0  35321-4 0  9991,2 54770  53.2161 341.8126 0001583  83.5662 276.5510 15.08837051 46391,6917.889,95.438,540.85,538.659,0.0
54770.0,STARLINK-5448,PAYLOAD,2023-10-20 09:53:27,15.08833513,0.0001439,53.2169,340.6221,87.1272,272.9885,0.00013098,1.797e-05,0.0,0 STARLINK-5448,1 54770U 22175N   23293.41212662  .00001797  00000-0  13098-3 0  9991,2 54770  53.2169 340.6221 0001439  87.1272 272.9885 15.08833513 48597,6917.9,95.438,540.761,538.77,0.0
54770.0,STARLINK-5448,PAYLOAD,2023-10-21 09:44:14,15.08848296,0.0001391,53.2178,336.161,92.0059,268.1093,0.0006788,0.00010534,0.0,0 STARLINK-5448,1 54770U 22175N   23294.40572907  .00010534  00000-0  67880-3 0  9999,2 54770  53.2178 336.1610 0001391  92.0059 268.1093 15.08848296 46583,6917.855,95.437,540.682,538.758,0.0
54770.0,STARLINK-5448,PAYLOAD,2023-10-22 03:13:29,15.08843322,0.0001484,53.2182,332.8925,94.698,265.4181,0.00021494,3.135e-05,0.0,0 STARLINK-5448,1 54770U 22175N   23295.13436926  .00003135  00000-0  21494-3 0  9990,2 54770  53.2182 332.8925 0001484  94.6980 265.4181 15.08843322 46699,6917.87,95.437,540.762,538.709,0.0
54770.0,STARLINK-5448,PAYLOAD,2023-10-22 09:35:01,15.08843566,0.0001425,53.2181,331.7034,91.4775,268.638,0.00021655,3.16e-05,0.0,0 STARLINK-5448,1 54770U 22175N   23295.39932869  .00003160  00000-0  21655-3 0  9992,2 54770  53.2181 331.7034 0001425  91.4775 268.6380 15.08843566 48899,6917.869,95.437,540.72,538.749,0.0
54770.0,STARLINK-5448,PAYLOAD,2023-10-22 19:07:21,15.08835023,0.0001392,53.2173,329.9194,93.3681,266.747,-2.0784e-05,-6.19e-06,0.0,0 STARLINK-5448,1 54770U 22175N   23295.79677158 -.00000619  00000-0 -20784-4 0  9994,2 54770  53.2173 329.9194 0001392  93.3681 266.7470 15.08835023 46791,6917.896,95.438,540.724,538.798,0.0
54770.0,STARLINK-5448,PAYLOAD,2023-10-23 09:25:47,15.08869487,0.0001575,53.2178,327.2414,90.1051,270.0122,0.0004039,6.151e-05,0.0,0 STARLINK-5448,1 54770U 22175N   23296.39291023  .00006151  00000-0  40390-3 0  9993,2 54770  53.2178 327.2414 0001575  90.1051 270.0122 15.08869487 46884,6917.79,95.436,540.745,538.566,0.0
54770.0,STARLINK-5448,PAYLOAD,2023-10-23 18:58:06,15.0884631,0.000177,53.2175,325.458,95.6077,264.5117,5.062e-05,5.18e-06,0.0,0 STARLINK-5448,1 54770U 22175N   23296.79035859  .00000518  00000-0  50620-4 0  9999,2 54770  53.2175 325.4580 0001770  95.6077 264.5117 15.08846310 46949,6917.861,95.437,540.951,538.502,0.0
54770.0,STARLINK-5448,PAYLOAD,2023-10-24 10:52:00,15.0882691,0.0001657,53.2176,322.4829,92.3383,267.7798,-6.3076e-05,-1.291e-05,0.0,0 STARLINK-5448,1 54770U 22175N   23297.45278006 -.00001291  00000-0 -63076-4 0  9996,2 54770  53.2176 322.4829 0001657  92.3383 267.7798 15.08826910 47047,6917.92,95.438,540.932,538.639,0.0
54770.0,STARLINK-5448,PAYLOAD,2023-10-25 10:42:45,15.08845863,0.0001801,53.2172,318.0214,96.3276,263.7921,-3.1596e-05,-7.91e-06,0.0,0 STARLINK-5448,1 54770U 22175N   23298.44636574 -.00000791  00000-0 -31596-4 0  9990,2 54770  53.2172 318.0214 0001801  96.3276 263.7921 15.08845863 47196,6917.862,95.437,540.973,538.482,0.0
54770.0,STARLINK-5448,PAYLOAD,2023-10-26 01:01:15,15.08837347,0.0001871,53.2164,315.3452,98.2488,261.8717,0.00043882,6.702e-05,0.0,0 STARLINK-5448,1 54770U 22175N   23299.04253719  .00006702  00000-0  43882-3 0  9999,2 54770  53.2164 315.3452 0001871  98.2488 261.8717 15.08837347 47284,6917.888,95.438,541.048,538.459,0.0
54770.0,STARLINK-5448,PAYLOAD,2023-10-26 10:33:33,15.08851481,0.0001816,53.2154,313.5607,99.991,260.1287,0.00060009,9.278e-05,0.0,0 STARLINK-5448,1 54770U 22175N   23299.43997311  .00009278  00000-0  60009-3 0  9996,2 54770  53.2154 313.5607 0001816  99.9910 260.1287 15.08851481 49508,6917.845,95.437,540.967,538.454,0.0
54770.0,STARLINK-5448,PAYLOAD,2023-10-27 10:24:20,15.08853541,0.0002012,53.2165,309.0973,109.401,250.72,0.00033485,5.047e-05,0.0,0 STARLINK-5448,1 54770U 22175N   23300.43356939  .00005047  00000-0  33485-3 0  9992,2 54770  53.2165 309.0973 0002012 109.4010 250.7200 15.08853541 47498,6917.839,95.437,541.096,538.312,0.0
54770.0,STARLINK-5448,PAYLOAD,2023-10-27 18:21:16,15.0883403,0.000237,53.2159,307.6123,97.994,262.1321,-5.8573e-05,-1.22e-05,0.0,0 STARLINK-5448,1 54770U 22175N   23300.76477642 -.00001220  00000-0 -58573-4 0  9990,2 54770  53.2159 307.6123 0002370  97.9940 262.1321 15.08834030 47541,6917.899,95.438,541.403,538.124,0.0
54770.0,STARLINK-5448,PAYLOAD,2023-10-28 07:04:21,15.08836683,0.0001954,53.2165,305.235,89.0253,271.0963,3.4823e-05,2.66e-06,0.0,0 STARLINK-5448,1 54770U 22175N   23301.29469884  .00000266  00000-0  34823-4 0  9997,2 54770  53.2165 305.2350 0001954  89.0253 271.0963 15.08836683 49785,6917.891,95.438,541.107,538.404,0.0
54770.0,STARLINK-5448,PAYLOAD,2023-10-29 03:44:22,15.08847927,0.0001756,53.2158,301.3656,90.6315,269.4878,0.00026186,3.883e-05,0.0,0 STARLINK-5448,1 54770U 22175N   23302.15581578  .00003883  00000-0  26186-3 0  9998,2 54770  53.2158 301.3656 0001756  90.6315 269.4878 15.08847927 47754,6917.856,95.437,540.936,538.506,0.0
54770.0,STARLINK-5448,PAYLOAD,2023-10-29 06:55:08,15.08858869,0.0001687,53.2162,300.771,87.2114,272.9072,0.00064192,9.948e-05,0.0,0 STARLINK-5448,1 54770U 22175N   23302.28829436  .00009948  00000-0  64192-3 0  9997,2 54770  53.2162 300.7710 0001687  87.2114 272.9072 15.08858869 49939,6917.823,95.436,540.855,538.521,0.0
54770.0,STARLINK-5448,PAYLOAD,2023-10-29 16:27:27,15.08846058,0.0001813,53.2163,298.9867,86.8142,273.3058,0.00027593,4.107e-05,0.0,0 STARLINK-5448,1 54770U 22175N   23302.68573518  .00004107  00000-0  27593-3 0  9994,2 54770  53.2163 298.9867 0001813  86.8142 273.3058 15.08846058 49990,6917.862,95.437,540.981,538.473,0.0
